IRIDIUM 144             
1 43249U 18030A   23283.77359648  .00000549  00000+0  18890-3 0  9997
2 43249  86.3999 340.1779 0002054  96.1738 263.9691 14.34221509289617
IRIDIUM 149             
1 43250U 18030B   23283.71017145  .00000564  00000+0  19418-3 0  9990
2 43250  86.3999 340.1822 0001998  99.2329 260.9093 14.34222275289629
IRIDIUM 157             
1 43251U 18030C   23283.51989029  .00000558  00000+0  19223-3 0  9995
2 43251  86.4000 340.2933 0002376  90.3608 269.7860 14.34223329289575
IRIDIUM 140             
1 43252U 18030D   23283.67846018  .00000577  00000+0  19896-3 0  9990
2 43252  86.4000 340.2417 0001895  93.4903 266.6510 14.34221502289658
IRIDIUM 145             
1 43253U 18030E   23283.73554331  .00000561  00000+0  19310-3 0  9996
2 43253  86.4000 340.1924 0002015 103.3522 256.7898 14.34221219289591
IRIDIUM 146             
1 43254U 18030F   23283.71651905  .00000563  00000+0  19392-3 0  9992
2 43254  86.4001 340.2158 0002146 102.2193 257.9243 14.34219936289602
IRIDIUM 148             
1 43255U 18030G   23283.68480751  .00000552  00000+0  19013-3 0  9996
2 43255  86.4001 340.2575 0002290 102.1157 258.0296 14.34219659289630
IRIDIUM 142             
1 43256U 18030H   23283.23448268  .00000116  00000+0  34509-4 0  9999
2 43256  86.3997 340.3704 0002150  96.5087 263.6354 14.34217562289539
