<?xml version="1.0" encoding="UTF-8"?>
<ndm xmlns:xsi="http://www.w3.org/2001/XMLSchema-instance" xsi:noNamespaceSchemaLocation="https://sanaregistry.org/r/ndmxml_unqualified/ndmxml-2.0.0-master-2.0.xsd">
<omm id="CCSDS_OMM_VERS" version="2.0">
<header><CREATION_DATE/><ORIGINATOR/></header><body><segment><metadata><OBJECT_NAME>IRIDIUM 144</OBJECT_NAME><OBJECT_ID>2018-030A</OBJECT_ID><CENTER_NAME>EARTH</CENTER_NAME><REF_FRAME>TEME</REF_FRAME><TIME_SYSTEM>UTC</TIME_SYSTEM><MEAN_ELEMENT_THEORY>SGP4</MEAN_ELEMENT_THEORY></metadata><data><meanElements><EPOCH>2023-10-10T18:33:58.735872</EPOCH><MEAN_MOTION>14.34221509</MEAN_MOTION><ECCENTRICITY>.0002054</ECCENTRICITY><INCLINATION>86.3999</INCLINATION><RA_OF_ASC_NODE>340.1779</RA_OF_ASC_NODE><ARG_OF_PERICENTER>96.1738</ARG_OF_PERICENTER><MEAN_ANOMALY>263.9691</MEAN_ANOMALY></meanElements><tleParameters><EPHEMERIS_TYPE>0</EPHEMERIS_TYPE><CLASSIFICATION_TYPE>U</CLASSIFICATION_TYPE><NORAD_CAT_ID>43249</NORAD_CAT_ID><ELEMENT_SET_NO>999</ELEMENT_SET_NO><REV_AT_EPOCH>28961</REV_AT_EPOCH><BSTAR>.1889E-3</BSTAR><MEAN_MOTION_DOT>.549E-5</MEAN_MOTION_DOT><MEAN_MOTION_DDOT>0</MEAN_MOTION_DDOT></tleParameters></data></segment></body></omm>
<omm id="CCSDS_OMM_VERS" version="2.0">
<header><CREATION_DATE/><ORIGINATOR/></header><body><segment><metadata><OBJECT_NAME>IRIDIUM 149</OBJECT_NAME><OBJECT_ID>2018-030B</OBJECT_ID><CENTER_NAME>EARTH</CENTER_NAME><REF_FRAME>TEME</REF_FRAME><TIME_SYSTEM>UTC</TIME_SYSTEM><MEAN_ELEMENT_THEORY>SGP4</MEAN_ELEMENT_THEORY></metadata><data><meanElements><EPOCH>2023-10-10T17:02:38.813280</EPOCH><MEAN_MOTION>14.34222275</MEAN_MOTION><ECCENTRICITY>.0001998</ECCENTRICITY><INCLINATION>86.3999</INCLINATION><RA_OF_ASC_NODE>340.1822</RA_OF_ASC_NODE><ARG_OF_PERICENTER>99.2329</ARG_OF_PERICENTER><MEAN_ANOMALY>260.9093</MEAN_ANOMALY></meanElements><tleParameters><EPHEMERIS_TYPE>0</EPHEMERIS_TYPE><CLASSIFICATION_TYPE>U</CLASSIFICATION_TYPE><NORAD_CAT_ID>43250</NORAD_CAT_ID><ELEMENT_SET_NO>999</ELEMENT_SET_NO><REV_AT_EPOCH>28962</REV_AT_EPOCH><BSTAR>.19418E-3</BSTAR><MEAN_MOTION_DOT>.564E-5</MEAN_MOTION_DOT><MEAN_MOTION_DDOT>0</MEAN_MOTION_DDOT></tleParameters></data></segment></body></omm>
<omm id="CCSDS_OMM_VERS" version="2.0">
<header><CREATION_DATE/><ORIGINATOR/></header><body><segment><metadata><OBJECT_NAME>IRIDIUM 157</OBJECT_NAME><OBJECT_ID>2018-030C</OBJECT_ID><CENTER_NAME>EARTH</CENTER_NAME><REF_FRAME>TEME</REF_FRAME><TIME_SYSTEM>UTC</TIME_SYSTEM><MEAN_ELEMENT_THEORY>SGP4</MEAN_ELEMENT_THEORY></metadata><data><meanElements><EPOCH>2023-10-10T12:28:38.521056</EPOCH><MEAN_MOTION>14.34223329</MEAN_MOTION><ECCENTRICITY>.0002376</ECCENTRICITY><INCLINATION>86.4000</INCLINATION><RA_OF_ASC_NODE>340.2933</RA_OF_ASC_NODE><ARG_OF_PERICENTER>90.3608</ARG_OF_PERICENTER><MEAN_ANOMALY>269.7860</MEAN_ANOMALY></meanElements><tleParameters><EPHEMERIS_TYPE>0</EPHEMERIS_TYPE><CLASSIFICATION_TYPE>U</CLASSIFICATION_TYPE><NORAD_CAT_ID>43251</NORAD_CAT_ID><ELEMENT_SET_NO>999</ELEMENT_SET_NO><REV_AT_EPOCH>28957</REV_AT_EPOCH><BSTAR>.19223E-3</BSTAR><MEAN_MOTION_DOT>.558E-5</MEAN_MOTION_DOT><MEAN_MOTION_DDOT>0</MEAN_MOTION_DDOT></tleParameters></data></segment></body></omm>
<omm id="CCSDS_OMM_VERS" version="2.0">
<header><CREATION_DATE/><ORIGINATOR/></header><body><segment><metadata><OBJECT_NAME>IRIDIUM 140</OBJECT_NAME><OBJECT_ID>2018-030D</OBJECT_ID><CENTER_NAME>EARTH</CENTER_NAME><REF_FRAME>TEME</REF_FRAME><TIME_SYSTEM>UTC</TIME_SYSTEM><MEAN_ELEMENT_THEORY>SGP4</MEAN_ELEMENT_THEORY></metadata><data><meanElements><EPOCH>2023-10-10T16:16:58.959552</EPOCH><MEAN_MOTION>14.34221502</MEAN_MOTION><ECCENTRICITY>.0001895</ECCENTRICITY><INCLINATION>86.4000</INCLINATION><RA_OF_ASC_NODE>340.2417</RA_OF_ASC_NODE><ARG_OF_PERICENTER>93.4903</ARG_OF_PERICENTER><MEAN_ANOMALY>266.6510</MEAN_ANOMALY></meanElements><tleParameters><EPHEMERIS_TYPE>0</EPHEMERIS_TYPE><CLASSIFICATION_TYPE>U</CLASSIFICATION_TYPE><NORAD_CAT_ID>43252</NORAD_CAT_ID><ELEMENT_SET_NO>999</ELEMENT_SET_NO><REV_AT_EPOCH>28965</REV_AT_EPOCH><BSTAR>.19896E-3</BSTAR><MEAN_MOTION_DOT>.577E-5</MEAN_MOTION_DOT><MEAN_MOTION_DDOT>0</MEAN_MOTION_DDOT></tleParameters></data></segment></body></omm>
<omm id="CCSDS_OMM_VERS" version="2.0">
<header><CREATION_DATE/><ORIGINATOR/></header><body><segment><metadata><OBJECT_NAME>IRIDIUM 145</OBJECT_NAME><OBJECT_ID>2018-030E</OBJECT_ID><CENTER_NAME>EARTH</CENTER_NAME><REF_FRAME>TEME</REF_FRAME><TIME_SYSTEM>UTC</TIME_SYSTEM><MEAN_ELEMENT_THEORY>SGP4</MEAN_ELEMENT_THEORY></metadata><data><meanElements><EPOCH>2023-10-10T17:39:10.941984</EPOCH><MEAN_MOTION>14.34221219</MEAN_MOTION><ECCENTRICITY>.0002015</ECCENTRICITY><INCLINATION>86.4000</INCLINATION><RA_OF_ASC_NODE>340.1924</RA_OF_ASC_NODE><ARG_OF_PERICENTER>103.3522</ARG_OF_PERICENTER><MEAN_ANOMALY>256.7898</MEAN_ANOMALY></meanElements><tleParameters><EPHEMERIS_TYPE>0</EPHEMERIS_TYPE><CLASSIFICATION_TYPE>U</CLASSIFICATION_TYPE><NORAD_CAT_ID>43253</NORAD_CAT_ID><ELEMENT_SET_NO>999</ELEMENT_SET_NO><REV_AT_EPOCH>28959</REV_AT_EPOCH><BSTAR>.1931E-3</BSTAR><MEAN_MOTION_DOT>.561E-5</MEAN_MOTION_DOT><MEAN_MOTION_DDOT>0</MEAN_MOTION_DDOT></tleParameters></data></segment></body></omm>
<omm id="CCSDS_OMM_VERS" version="2.0">
<header><CREATION_DATE/><ORIGINATOR/></header><body><segment><metadata><OBJECT_NAME>IRIDIUM 146</OBJECT_NAME><OBJECT_ID>2018-030F</OBJECT_ID><CENTER_NAME>EARTH</CENTER_NAME><REF_FRAME>TEME</REF_FRAME><TIME_SYSTEM>UTC</TIME_SYSTEM><MEAN_ELEMENT_THEORY>SGP4</MEAN_ELEMENT_THEORY></metadata><data><meanElements><EPOCH>2023-10-10T17:11:47.245920</EPOCH><MEAN_MOTION>14.34219936</MEAN_MOTION><ECCENTRICITY>.0002146</ECCENTRICITY><INCLINATION>86.4001</INCLINATION><RA_OF_ASC_NODE>340.2158</RA_OF_ASC_NODE><ARG_OF_PERICENTER>102.2193</ARG_OF_PERICENTER><MEAN_ANOMALY>257.9243</MEAN_ANOMALY></meanElements><tleParameters><EPHEMERIS_TYPE>0</EPHEMERIS_TYPE><CLASSIFICATION_TYPE>U</CLASSIFICATION_TYPE><NORAD_CAT_ID>43254</NORAD_CAT_ID><ELEMENT_SET_NO>999</ELEMENT_SET_NO><REV_AT_EPOCH>28960</REV_AT_EPOCH><BSTAR>.19392E-3</BSTAR><MEAN_MOTION_DOT>.563E-5</MEAN_MOTION_DOT><MEAN_MOTION_DDOT>0</MEAN_MOTION_DDOT></tleParameters></data></segment></body></omm>
<omm id="CCSDS_OMM_VERS" version="2.0">
<header><CREATION_DATE/><ORIGINATOR/></header><body><segment><metadata><OBJECT_NAME>IRIDIUM 148</OBJECT_NAME><OBJECT_ID>2018-030G</OBJECT_ID><CENTER_NAME>EARTH</CENTER_NAME><REF_FRAME>TEME</REF_FRAME><TIME_SYSTEM>UTC</TIME_SYSTEM><MEAN_ELEMENT_THEORY>SGP4</MEAN_ELEMENT_THEORY></metadata><data><meanElements><EPOCH>2023-10-10T16:26:07.368864</EPOCH><MEAN_MOTION>14.34219659</MEAN_MOTION><ECCENTRICITY>.000229</ECCENTRICITY><INCLINATION>86.4001</INCLINATION><RA_OF_ASC_NODE>340.2575</RA_OF_ASC_NODE><ARG_OF_PERICENTER>102.1157</ARG_OF_PERICENTER><MEAN_ANOMALY>258.0296</MEAN_ANOMALY></meanElements><tleParameters><EPHEMERIS_TYPE>0</EPHEMERIS_TYPE><CLASSIFICATION_TYPE>U</CLASSIFICATION_TYPE><NORAD_CAT_ID>43255</NORAD_CAT_ID><ELEMENT_SET_NO>999</ELEMENT_SET_NO><REV_AT_EPOCH>28963</REV_AT_EPOCH><BSTAR>.19013E-3</BSTAR><MEAN_MOTION_DOT>.552E-5</MEAN_MOTION_DOT><MEAN_MOTION_DDOT>0</MEAN_MOTION_DDOT></tleParameters></data></segment></body></omm>
<omm id="CCSDS_OMM_VERS" version="2.0">
<header><CREATION_DATE/><ORIGINATOR/></header><body><segment><metadata><OBJECT_NAME>IRIDIUM 142</OBJECT_NAME><OBJECT_ID>2018-030H</OBJECT_ID><CENTER_NAME>EARTH</CENTER_NAME><REF_FRAME>TEME</REF_FRAME><TIME_SYSTEM>UTC</TIME_SYSTEM><MEAN_ELEMENT_THEORY>SGP4</MEAN_ELEMENT_THEORY></metadata><data><meanElements><EPOCH>2023-10-10T05:37:39.303552</EPOCH><MEAN_MOTION>14.34217562</MEAN_MOTION><ECCENTRICITY>.000215</ECCENTRICITY><INCLINATION>86.3997</INCLINATION><RA_OF_ASC_NODE>340.3704</RA_OF_ASC_NODE><ARG_OF_PERICENTER>96.5087</ARG_OF_PERICENTER><MEAN_ANOMALY>263.6354</MEAN_ANOMALY></meanElements><tleParameters><EPHEMERIS_TYPE>0</EPHEMERIS_TYPE><CLASSIFICATION_TYPE>U</CLASSIFICATION_TYPE><NORAD_CAT_ID>43256</NORAD_CAT_ID><ELEMENT_SET_NO>999</ELEMENT_SET_NO><REV_AT_EPOCH>28953</REV_AT_EPOCH><BSTAR>.34509E-4</BSTAR><MEAN_MOTION_DOT>.116E-5</MEAN_MOTION_DOT><MEAN_MOTION_DDOT>0</MEAN_MOTION_DDOT></tleParameters></data></segment></body></omm>

</ndm>
